<?xml version="1.0" encoding="utf-8" ?>
<kml xmlns="http://www.opengis.net/kml/2.2">
<Document id="root_doc">
<Schema name="MLRA_42B" id="MLRA_42B">
	<SimpleField name="MLRA_ID" type="float"></SimpleField>
	<SimpleField name="MLRARSYM" type="string"></SimpleField>
	<SimpleField name="MLRA_NAME" type="string"></SimpleField>
	<SimpleField name="LRRSYM" type="string"></SimpleField>
	<SimpleField name="LRR_NAME" type="string"></SimpleField>
</Schema>
<Folder><name>MLRA_42B</name>
  <Placemark id="MLRA_42B.1">
	<Style><LineStyle><color>ff0000ff</color></LineStyle><PolyStyle><fill>0</fill></PolyStyle></Style>
	<ExtendedData><SchemaData schemaUrl="#MLRA_42B">
		<SimpleData name="MLRA_ID">43</SimpleData>
		<SimpleData name="MLRARSYM">42B</SimpleData>
		<SimpleData name="MLRA_NAME">Southern Rio Grande Rift</SimpleData>
		<SimpleData name="LRRSYM">D</SimpleData>
		<SimpleData name="LRR_NAME">Western Range and Irrigated Region</SimpleData>
	</SchemaData></ExtendedData>
      <Polygon><outerBoundaryIs><LinearRing><coordinates>-106.501478,35.3825664 -106.5117394,35.3789297 -106.5261198,35.3668393 -106.5343415,35.3554632 -106.5943464,35.2887303 -106.6795365,35.2048044 -106.7120894,35.1630336 -106.7494506,35.1081293 -106.7781093,35.0767474 -106.7975181,35.0621857 -106.8175207,35.0560968 -106.8286119,35.0563347 -106.8388171,35.059529 -106.8526036,35.0702376 -106.8871192,35.1081265 -106.9072578,35.1177598 -106.9169432,35.1183231 -106.9271176,35.114643 -106.9363079,35.105507 -106.9624589,35.0537958 -106.9743209,35.0368005 -106.9929416,35.0210143 -107.0158003,35.0081827 -107.0355704,35.0022066 -107.0618446,34.9997362 -107.166825,35.0059359 -107.2246203,35.0049392 -107.280768,34.9953688 -107.3247373,34.9785788 -107.3914624,34.9393571 -107.4226862,34.9179939 -107.4351046,34.9072523 -107.4468822,34.891737 -107.4501392,34.8789456 -107.4470808,34.8647197 -107.4390061,34.8540536 -107.4265454,34.8454924 -107.4099933,34.8396162 -107.3736416,34.8367281 -107.3530011,34.8381668 -107.2583976,34.8503718 -107.2052636,34.8608589 -107.1733128,34.8633081 -107.1565118,34.8611521 -107.1414322,34.8559565 -107.1295247,34.8487779 -107.108325,34.8259722 -107.0995883,34.8104511 -107.0913499,34.7885924 -107.0848457,34.7538636 -107.0709383,34.6167414 -107.0651185,34.6015033 -107.035463,34.5540714 -107.0233109,34.5029209 -107.0002202,34.4536522 -106.9910587,34.4284236 -106.9804585,34.3747012 -106.9807293,34.3495023 -106.9907837,34.3167102 -106.9935855,34.2997984 -106.9918427,34.2345384 -106.9933466,34.2196403 -106.998396,34.2073077 -107.0115733,34.1954524 -107.0172704,34.1871901 -107.0224556,34.1723013 -107.0255298,34.1512341 -107.025047,34.0849371 -107.0118317,34.0000671 -107.0126267,33.9862222 -107.0166517,33.979641 -107.015931,33.9691936 -107.0213178,33.9475155 -107.0356811,33.9196066 -107.0671615,33.8872321 -107.1221046,33.8408032 -107.1371867,33.8193828 -107.1442111,33.8045959 -107.1488517,33.800293 -107.158106,33.7996149 -107.1692824,33.8045632 -107.2249703,33.8525365 -107.2399026,33.860632 -107.2553782,33.8644897 -107.2755071,33.862688 -107.3015761,33.8521286 -107.329411,33.8325116 -107.3389403,33.8229931 -107.3458124,33.8121643 -107.349145,33.7949904 -107.3423033,33.7736017 -107.3202285,33.7344808 -107.2962647,33.7106403 -107.2852268,33.6912835 -107.2808522,33.6645272 -107.2772041,33.6149931 -107.2636167,33.5529543 -107.2640886,33.531061 -107.2759433,33.474348 -107.2849197,33.4573405 -107.2981834,33.4465864 -107.3260599,33.4319821 -107.4124944,33.380202 -107.4288134,33.361477 -107.4404047,33.3374553 -107.4517234,33.2958288 -107.4609818,33.2493267 -107.517972,32.8044921 -107.5320763,32.7429381 -107.5423107,32.7160367 -107.5504946,32.7018758 -107.5367746,32.6989897 -107.5229214,32.6933538 -107.5090972,32.6850332 -107.4939869,32.6717345 -107.4828252,32.6567304 -107.4725995,32.6331548 -107.4666343,32.5979197 -107.4679233,32.5214184 -107.4640031,32.4863969 -107.4480088,32.4257922 -107.4146655,32.3339159 -107.4094035,32.3119276 -107.4081115,32.1730173 -107.4214187,32.1095697 -107.4223257,32.0841007 -107.4113543,32.0112426 -107.3944511,31.9445063 -107.3897834,31.8944234 -107.3912442,31.8676728 -107.3983387,31.8302166 -107.4098841,31.7969703 -107.4183674,31.7836113 -107.2968339,31.7837671 -107.2968037,31.7837671 -107.0005699,31.7835181 -107.0005699,31.7836841 -106.9982449,31.7836761 -106.9935539,31.7836941 -106.7505568,31.7839031 -106.7505568,31.7837111 -106.5317408,31.7839151 -106.5292021,31.7833607 -106.5282518,31.7831531 -106.5286528,31.7818121 -106.5236528,31.7762121 -106.5073518,31.7612131 -106.4895517,31.7484131 -106.4846517,31.7478141 -106.4755517,31.7501141 -106.4707517,31.7535131 -106.4676517,31.7596131 -106.4515507,31.7648131 -106.4315507,31.7542141 -106.4179497,31.7520141 -106.3810487,31.7321151 -106.3780487,31.7283151 -106.3738487,31.7148151 -106.3701487,31.7107151 -106.3602058,31.7039598 -106.3495477,31.6967161 -106.346999,31.6911027 -106.3466438,31.6903206 -106.3347467,31.6641171 -106.3324792,31.6609434 -106.3246486,31.6499805 -106.3177889,31.640374 -106.3047051,31.6220431 -106.3035457,31.6204181 -106.2877947,31.5844501 -106.2808207,31.5620671 -106.2602726,31.5509656 -106.2547897,31.5480021 -106.2478411,31.5424576 -106.2462127,31.5411581 -106.2379812,31.5168327 -106.2368137,31.5133811 -106.2303583,31.5068969 -106.2239187,31.5004271 -106.2189324,31.4806217 -106.2188527,31.4803051 -106.2177016,31.4790387 -106.2086699,31.4690996 -106.2058367,31.4659811 -106.2052955,31.4658071 -106.1890492,31.4605835 -106.1756847,31.4562841 -106.1705348,31.451154 -106.1669866,31.4476188 -106.1582277,31.4388901 -106.1519838,31.4355728 -106.1367571,31.4274803 -106.1327917,31.4253721 -106.1121786,31.4235831 -106.1082683,31.421976 -106.1068866,31.4214081 -106.0812481,31.3995436 -106.0802676,31.3987071 -106.079048,31.3986064 -106.0470535,31.3959605 -106.0126959,31.3931087 -106.0049356,31.3924631 -106.0025779,31.3906677 -105.9974953,31.3867969 -105.9917284,31.3824066 -105.971451,31.3669633 -105.9701106,31.3659421 -105.9677203,31.3657665 -105.9600693,31.3652041 -105.9572313,31.3649953 -105.9539526,31.3647541 -105.9459126,31.3528151 -105.9481006,31.3400741 -105.9384616,31.3187401 -105.933577,31.3140915 -105.9325626,31.3131261 -105.9288946,31.3130729 -105.9195013,31.3129361 -105.9087806,31.3127791 -105.9070561,31.310829 -105.9034706,31.3067741 -105.8957579,31.2923202 -105.8950446,31.2909831 -105.8908816,31.2900191 -105.8760246,31.2915941 -105.8702916,31.2890512 -105.8693626,31.2886391 -105.8675077,31.2863339 -105.8532944,31.2686645 -105.842466,31.2551963 -105.8357316,31.2468171 -105.8226582,31.2343298 -105.8188446,31.2306861 -105.7954782,31.2035051 -105.7943956,31.2022451 -105.7846166,31.198265 -105.7829046,31.1975681 -105.7797346,31.1912881 -105.7800306,31.1826711 -105.7745233,31.1698325 -105.7732666,31.1669021 -105.7635406,31.1641261 -105.7426876,31.1649021 -105.7198821,31.1493923 -105.7195495,31.1491661 -105.7191299,31.1478874 -105.7170155,31.1414431 -105.7139523,31.1393795 -105.7135518,31.1391096 -105.7095005,31.1363801 -105.7084223,31.1360165 -105.7080678,31.135897 -105.6488435,31.1159071 -105.647755,31.114875 -105.6467405,31.1139131 -105.6429279,31.1016384 -105.6418995,31.0983271 -105.6294776,31.0985177 -105.6273585,31.0985501 -105.626285,31.0978388 -105.6033395,31.0826301 -105.5987825,31.0749311 -105.5959305,31.0648471 -105.587572,31.0590472 -105.5853325,31.0574931 -105.5795515,31.0354011 -105.5813543,31.0271239 -105.5814135,31.0268521 -105.5813717,31.0267571 -105.5807934,31.0254434 -105.5791235,31.0216501 -105.5675898,31.0049437 -105.5576049,30.9904737 -105.5574395,30.990234 -105.5565804,30.9898916 -105.548714,30.9867559 -105.5436855,30.984751 -105.536512,30.9848277 -105.5330975,30.984864 -105.5090724,30.9675829 -105.5022665,30.962685 -105.4979735,30.957284 -105.4978037,30.9562443 -105.4968769,30.950569 -105.4968655,30.950499 -105.4940555,30.9482026 -105.4880365,30.943283 -105.4857005,30.9417729 -105.4729203,30.9335094 -105.4624299,30.9267239 -105.4553826,30.9221642 -105.4501602,30.9187847 -105.4473633,30.9169745 -105.433537,30.9080236 -105.4316119,30.9067771 -105.4300985,30.905797 -105.4177908,30.9013564 -105.4168227,30.901007 -105.4135145,30.899813 -105.3996185,30.888946 -105.3942585,30.871966 -105.3966995,30.855432 -105.3942515,30.852984 -105.3913646,30.8522406 -105.3774265,30.84865 -105.3606815,30.847389 -105.3560091,30.8440342 -105.3494805,30.8393457 -105.3477044,30.83807 -105.3300133,30.8312652 -105.323668,30.8288235 -105.3202599,30.8275119 -105.3201174,30.827457 -105.3193792,30.8267188 -105.4441639,31.0055375 -105.4975294,31.0889549 -105.5170577,31.1247397 -105.5309861,31.1602414 -105.5469367,31.2127677 -105.5467707,31.2350261 -105.5312963,31.2682958 -105.5302508,31.2831089 -105.5341744,31.2941606 -105.548926,31.3106525 -105.6027609,31.3539579 -105.6517743,31.4109203 -105.7253407,31.4731518 -105.7505479,31.496942 -105.7708251,31.5220693 -105.8096007,31.6009806 -105.8385087,31.6341291 -105.8731666,31.6620959 -105.9354739,31.6968753 -105.9558015,31.7097461 -105.9805047,31.7300104 -106.0078075,31.7641827 -106.029267,31.8095547 -106.0377954,31.8515234 -106.0507866,31.9834021 -106.0516132,32.0163124 -106.0451253,32.052511 -106.0373582,32.0690978 -106.0178791,32.093346 -105.9217929,32.1740452 -105.9000435,32.2004594 -105.8899138,32.2181065 -105.8823336,32.236635 -105.8737045,32.2737121 -105.8634235,32.3763779 -105.8565859,32.412176 -105.8389774,32.4669842 -105.7996182,32.5495162 -105.8676844,32.6375505 -105.8866939,32.6652222 -105.9185404,32.7206419 -105.9369764,32.7651292 -105.9451659,32.7985771 -105.9489134,32.8273848 -105.9494599,32.9209716 -105.9562171,32.9848836 -105.9636046,33.0187355 -105.9999067,33.1482201 -106.0119409,33.2088135 -106.0148076,33.2430657 -106.011441,33.27658 -106.0062671,33.2940375 -105.9836826,33.3386977 -105.9752264,33.3618306 -105.9714427,33.4081243 -105.9673277,33.421266 -105.9591651,33.4359823 -105.9340625,33.463271 -105.8462503,33.5349117 -105.8127666,33.5703418 -105.8013806,33.5908985 -105.7977357,33.6077302 -105.8010657,33.6293993 -105.8115505,33.650256 -105.8511059,33.7059855 -105.8775163,33.75545 -105.8954243,33.7761647 -105.9096778,33.785947 -105.9267208,33.7920513 -105.9448077,33.7940615 -105.9656685,33.7925531 -105.9937859,33.7857741 -106.0328733,33.7723252 -106.0601495,33.7593069 -106.0730377,33.7508855 -106.0947028,33.7323462 -106.1262098,33.6985879 -106.1489972,33.6785327 -106.2192718,33.6370398 -106.2340567,33.620371 -106.26379,33.5688942 -106.278595,33.5517032 -106.285946,33.5471959 -106.2996742,33.5440643 -106.312453,33.5459832 -106.323778,33.551636 -106.3344455,33.5605456 -106.3461435,33.5749026 -106.3640526,33.6092693 -106.3769135,33.6510371 -106.3837505,33.695656 -106.385075,33.7317947 -106.3812842,33.7834759 -106.3514141,33.9249822 -106.3426176,33.9960605 -106.3420197,34.0199143 -106.3454938,34.0608109 -106.3542608,34.0918815 -106.3668309,34.1134208 -106.3741315,34.1208055 -106.387321,34.1287357 -106.4047649,34.1323352 -106.419443,34.1312659 -106.4344243,34.1271713 -106.4560823,34.1165416 -106.5229232,34.0700632 -106.5469056,34.0583986 -106.561406,34.0538087 -106.5911373,34.0505145 -106.6077698,34.0519613 -106.6364295,34.0590662 -106.7211319,34.0930789 -106.7372047,34.1074712 -106.742257,34.11939 -106.7429279,34.1380051 -106.7390045,34.1531491 -106.694306,34.2333048 -106.6740388,34.2626056 -106.5409879,34.434917 -106.5192426,34.4724864 -106.5072013,34.5103557 -106.4892053,34.6257036 -106.4607359,34.7279895 -106.4387991,34.8264477 -106.4345478,34.8647802 -106.4398792,34.9094677 -106.4692405,35.0143433 -106.4744743,35.0403297 -106.4785961,35.0850189 -106.4828135,35.1905419 -106.4946821,35.2592403 -106.4942221,35.2687057 -106.5243049,35.2921157 -106.5302799,35.2996991 -106.5328663,35.3080299 -106.5309624,35.3198171 -106.5248949,35.3341538 -106.4955172,35.3733327 -106.494284,35.3804842 -106.501478,35.3825664</coordinates></LinearRing></outerBoundaryIs></Polygon>
  </Placemark>
</Folder>
</Document></kml>
